STARLINK-31911          
1 60587U 24150E   24259.16667824  .00005838  00000+0  15585-3 0  9990
2 60587  53.1593 300.3755 0001282 104.7388  23.3765 15.39612444  5135
STARLINK-31994          
1 60588U 24150F   24259.52408730  .00004910  00000+0  96260-4 0  9990
2 60588  53.1584 298.5958 0001618  84.7286 275.3908 15.49315671  5182
STARLINK-32169          
1 60589U 24150G   24259.00001157 -.00002121  00000+0 -43023-4 0  9999
2 60589  53.1593 301.3632 0001217  96.2321  86.3412 15.39643170  5220
STARLINK-32209          
1 60590U 24150H   24259.39442112 -.00010318  00000+0 -17797-3 0  9998
2 60590  53.1590 299.2040 0003073 158.5388 201.5750 15.49256817  5285
STARLINK-32170          
1 60591U 24150J   24259.50001157  .00005335  00000+0  14324-3 0  9996
2 60591  53.1588 298.9583 0001218  77.9024  23.3235 15.39624335  5170
STARLINK-31497          
1 60592U 24150K   24259.50001157 -.00326658  00000+0 -84523-2 0  9990
2 60592  53.1594 298.7557 0002013  63.6441 138.6999 15.39826133  5296
STARLINK-32161          
1 60593U 24150L   24259.50001157 -.00769891  00000+0 -14871-1 0  9999
2 60593  53.1591 298.6911 0001491  94.3670 140.9513 15.49607883  5255
STARLINK-32210          
1 60594U 24150M   24259.13498182  .00013772  00000+0  25521-3 0  9991
2 60594  53.1595 300.4296 0001997  95.2981 264.8256 15.49312178  5243
STARLINK-32202          
1 60595U 24150N   24258.91667824  .00015922  00000+0  40731-3 0  9997
2 60595  53.1583 301.6055 0001634  80.5940  75.3263 15.39610884  5266
STARLINK-31930          
1 60596U 24150P   24259.13429184  .00015970  00000+0  29448-3 0  9993
2 60596  53.1584 300.4255 0001335 123.6096 236.5040 15.49321821  5081
STARLINK-32162          
1 60597U 24150Q   24259.58334491  .00084170  00000+0  20932-2 0  9995
2 60597  53.1586 298.5687 0001127  59.0134 142.5506 15.39588959  5319
STARLINK-32208          
1 60598U 24150R   24259.48675571  .00007033  00000+0  18562-3 0  9992
2 60598  53.1601 299.0758 0001176  62.4140 297.6984 15.39623856  5297
STARLINK-32165          
1 60599U 24150S   24259.50001157  .00052324  00000+0  13097-2 0  9999
2 60599  53.1586 298.9091 0001039  82.2709  42.8757 15.39606693  5295
STARLINK-31923          
1 60600U 24150T   24259.16667824 -.00059526  00000+0 -14880-2 0  9997
2 60600  53.1584 300.4224 0002336 101.7601   2.4246 15.39653086  5240
STARLINK-31988          
1 60601U 24150U   24259.16667824 -.00047405  00000+0 -11800-2 0  9990
2 60601  53.1592 300.3721 0001603 133.9007 355.9767 15.39683482  5128
STARLINK-31983          
1 60602U 24150V   24259.58334491 -.01506483  00000+0 -40137-1 0  9999
2 60602  53.1593 298.3082 0001136  91.0618 240.4128 15.40777004  5191
STARLINK-31874          
1 60603U 24150W   24259.16667824 -.00012550  00000+0 -30418-3 0  9992
2 60603  53.1595 300.3186 0001393  89.4751  66.2153 15.39629399  5246
STARLINK-32039          
1 60604U 24150X   24259.16667824 -.01340512  00000+0 -42604-1 0  9994
2 60604  53.1591 300.4896 0001080  76.1399 354.8642 15.35040220  5241
ZHONGXING-4A            
1 60606U 24151A   24258.32456782 -.00000369  00000+0  00000+0 0  9996
2 60606   2.9776 278.2371 0001507 344.0021 326.6567  1.00276788   327
CZ-7A R/B               
1 60607U 24151B   24247.17828704  .00829450  16382-5  18628-2 0  9998
2 60607  14.6957 176.6447 7136648 176.6235 201.0779  2.53358494   181
STARLINK-11247 [DTC]    
1 60720U 24152A   24259.25002315 -.01067978  00000+0 -85898-2 0  9998
2 60720  53.1505 260.7596 0000952  68.6970  98.5569 15.72870846  3961
STARLINK-11259 [DTC]    
1 60721U 24152B   24259.25002315 -.01066594  00000+0 -83301-2 0  9999
2 60721  53.1535 260.7106 0000861  85.8660 105.3792 15.73548445  3815
STARLINK-11188 [DTC]    
1 60722U 24152C   24259.58334491 -.01071126  00000+0 -84084-2 0  9995
2 60722  53.1500 259.0084 0000812  62.8833 241.4541 15.73441765  4112
STARLINK-11272 [DTC]    
1 60723U 24152D   24259.58334491 -.01067990  00000+0 -79206-2 0  9990
2 60723  53.1491 258.9124 0000811  61.7543 289.0936 15.74737946  4026
STARLINK-11261 [DTC]    
1 60724U 24152E   24259.58334491 -.01068591  00000+0 -81496-2 0  9993
2 60724  53.1495 258.9598 0000687  64.4181 263.4236 15.74101502  4016
STARLINK-11263 [DTC]    
1 60725U 24152F   24259.58334491 -.01069897  00000+0 -77163-2 0  9990
2 60725  53.1486 258.8663 0001009  56.2557 316.9606 15.75375327  4029
STARLINK-11235 [DTC]    
1 60726U 24152G   24259.58334491 -.01069956  00000+0 -75030-2 0  9998
2 60726  53.1481 258.8214 0001031  56.6896 338.2698 15.76009908  4132
STARLINK-11080 [DTC]    
1 60727U 24152H   24259.58334491 -.01070694  00000+0 -73058-2 0  9998
2 60727  53.1480 258.7776 0001079  56.3795 359.9032 15.76624951  4134
STARLINK-11249 [DTC]    
1 60728U 24152J   24259.58334491 -.01068921  00000+0 -70973-2 0  9992
2 60728  53.1479 258.7348 0000643  72.3794   4.6758 15.77234248  4025
STARLINK-11146 [DTC]    
1 60729U 24152K   24259.58334491 -.01072168  00000+0 -69282-2 0  9992
2 60729  53.1480 258.6935 0000644  73.4753  23.7936 15.77844367  4138
STARLINK-11255 [DTC]    
1 60730U 24152L   24259.58334491 -.01073748  00000+0 -67471-2 0  9997
2 60730  53.1478 258.6527 0000746  68.0623  48.6904 15.78464051  4021
STARLINK-11254 [DTC]    
1 60731U 24152M   24259.58334491 -.01075547  00000+0 -65764-2 0  9990
2 60731  53.1477 258.6134 0000921  64.9066  70.9930 15.79065351  4013
STARLINK-11266 [DTC]    
1 60732U 24152N   24259.16667824 -.01085162  00000+0 -61896-2 0  9990
2 60732  53.1479 260.6599 0000614  79.5136 223.7625 15.80598117  3957
STARLINK-32253          
1 60733U 24152P   24259.25002315 -.01732531  00000+0 -19155-1 0  9998
2 60733  53.1557 260.9039 0001102  79.9578  17.0968 15.65735341  4022
STARLINK-32179          
1 60734U 24152Q   24259.25002315 -.01732435  00000+0 -19154-1 0  9991
2 60734  53.1562 260.9078 0001056  78.3181  16.8198 15.65735575  3977
STARLINK-32272          
1 60735U 24152R   24259.25002315 -.01732528  00000+0 -19155-1 0  9996
2 60735  53.1562 260.8994 0001080  82.2206  16.7503 15.65735536  4026
STARLINK-32280          
1 60736U 24152S   24259.25002315 -.01732126  00000+0 -19150-1 0  9996
2 60736  53.1558 260.8955 0001096  80.6266  20.2609 15.65735256  4020
STARLINK-32289          
1 60737U 24152T   24259.25002315 -.01730561  00000+0 -19132-1 0  9998
2 60737  53.1552 260.8916 0001018  63.0900  39.7143 15.65733814  4066
STARLINK-32304          
1 60738U 24152U   24259.25002315 -.01731268  00000+0 -19141-1 0  9994
2 60738  53.1550 260.8877 0000973  79.0449  25.6767 15.65734196  4065
STARLINK-32235          
1 60739U 24152V   24259.16667824 -.01740835  00000+0 -19013-1 0  9995
2 60739  53.1572 261.2914 0000794  76.6923 279.8446 15.66056494  4008
STARLINK-32315          
1 60740U 24152W   24259.25002315 -.01730931  00000+0 -19137-1 0  9998
2 60740  53.1553 260.8794 0000945  78.5734  29.9811 15.65734165  3960
2024-153A               
1 60745U 24153A   24259.50154666  .00017629  00000+0  10878-2 0  9992
2 60745  97.6163  16.9255 0016000 224.6017 135.3926 15.09870808  2617
2024-153B               
1 60746U 24153B   24259.49837345  .00024636  00000+0  15013-2 0  9995
2 60746  97.6164  16.9304 0016032 228.2298 131.7561 15.10252361  2615
2024-153C               
1 60747U 24153C   24259.56430664  .00025329  00000+0  15404-2 0  9991
2 60747  97.6162  16.9962 0016742 227.6941 132.2871 15.10311105  2623
2024-153D               
1 60748U 24153D   24259.49719012  .00028268  00000+0  17130-2 0  9994
2 60748  97.6196  16.9394 0016119 228.6295 131.3549 15.10424940  2614
2024-153E               
1 60749U 24153E   24259.49674530  .00028200  00000+0  17072-2 0  9991
2 60749  97.6162  16.9321 0015554 229.7206 130.2665 15.10468890  2613
2024-153F               
1 60750U 24153F   24259.36315195  .00025633  00000+0  15486-2 0  9992
2 60750  97.6127  16.7942 0016273 231.0685 128.9095 15.10556111  2591
2024-153G               
1 60751U 24153G   24259.49306329  .00114839  55835-5  10124-2 0  9999
2 60751  97.6409  18.1175 0165902 307.1255  51.4936 15.52968503  2683
2024-153H               
1 60752U 24153H   24242.34728060 -.00000069  00000+0  00000+0 0  9993
2 60752  97.3719   0.5652 0013970  33.0832  33.4934 15.22204973    28
STARLINK-11242 [DTC]    
1 60903U 24154A   24259.46516243  .00048923  00000+0  30104-3 0  9993
2 60903  53.1516 276.7450 0001264  74.2099 285.9061 15.76739972  3635
STARLINK-11256 [DTC]    
1 60904U 24154B   24259.46027694 -.00040418  00000+0 -24435-3 0  9994
2 60904  53.1513 276.7124 0001685  71.8821 288.2383 15.76705661  3635
STARLINK-11159 [DTC]    
1 60905U 24154C   24259.51879511 -.00066544  00000+0 -40686-3 0  9998
2 60905  53.1507 276.3639 0001548  27.9106 332.1997 15.76666007  3643
STARLINK-11264 [DTC]    
1 60906U 24154D   24259.58334491  .00197274  00000+0  11858-2 0  9990
2 60906  53.1503 275.9866 0001766  91.7051 302.5379 15.76647068  3659
STARLINK-11226 [DTC]    
1 60907U 24154E   24259.58334491  .00193654  00000+0  11653-2 0  9992
2 60907  53.1505 275.9295 0001981  47.1186  14.8243 15.76633451  3644
STARLINK-11229 [DTC]    
1 60908U 24154F   24259.58334491  .00191467  00000+0  11549-2 0  9997
2 60908  53.1500 275.8721 0001261  51.4041  38.1706 15.76586416  3643
STARLINK-11265 [DTC]    
1 60909U 24154G   24259.25002315  .00124144  00000+0  75532-3 0  9990
2 60909  53.1508 277.4748 0001130  76.2576 308.1995 15.76612898  3590
STARLINK-11250 [DTC]    
1 60910U 24154H   24259.25002315 -.00076041  00000+0 -46412-3 0  9991
2 60910  53.1504 277.4183 0000912  81.7032 330.3846 15.76759892  3594
STARLINK-11190 [DTC]    
1 60911U 24154J   24259.25002315  .00010763  00000+0  69729-4 0  9996
2 60911  53.1502 277.3616 0000451  55.3491  24.4529 15.76707397  3599
